[{"OBJECT_NAME":"STARLINK-34903","OBJECT_ID":"2025-190X","EPOCH":"2026-03-09T14:23:05.934336","MEAN_MOTION":15.30187497,"ECCENTRICITY":0.0001453,"INCLINATION":53.1603,"RA_OF_ASC_NODE":168.4296,"ARG_OF_PERICENTER":60.7932,"MEAN_ANOMALY":299.3214,"EPHEMERIS_TYPE":0,"CLASSIFICATION_TYPE":"U","NORAD_CAT_ID":65372,"ELEMENT_SET_NO":999,"REV_AT_EPOCH":2974,"BSTAR":0.0014101,"MEAN_MOTION_DOT":0.00041621,"MEAN_MOTION_DDOT":0},{"OBJECT_NAME":"PEGASUS DEB","OBJECT_ID":"1994-029AG","EPOCH":"2026-03-09T11:16:42.963744","MEAN_MOTION":15.37636263,"ECCENTRICITY":0.0031206,"INCLINATION":82.0362,"RA_OF_ASC_NODE":86.2933,"ARG_OF_PERICENTER":155.6019,"MEAN_ANOMALY":204.671,"EPHEMERIS_TYPE":0,"CLASSIFICATION_TYPE":"U","NORAD_CAT_ID":23986,"ELEMENT_SET_NO":999,"REV_AT_EPOCH":61542,"BSTAR":0.00061808813,"MEAN_MOTION_DOT":0.00023279,"MEAN_MOTION_DDOT":0}]
